     2.100          NAVIGATION                              RINEX VERSION / TYPE
fic2rin                                 08/08/2017 00:25:37 PGM / RUN BY / DATE
                                                            END OF HEADER
 8 17  8  7 22  0  0.0 -.690761953592D-04 -.125055521494D-11  .000000000000D+00
     .360000000000D+02  .360312500000D+02  .470341020163D-08  .318090970634D+00
     .193901360035D-05  .253964716103D-02  .981613993645D-06  .515366883850D+04
     .165600000000D+06 -.931322574615D-08  .145093497788D+01 -.912696123123D-07
     .966997948283D+00  .361593750000D+03 -.622036510912D+00 -.853856995143D-08
     .244295890190D-09  .100000000000D+01  .196100000000D+04  .000000000000D+00
     .240000000000D+01  .000000000000D+00  .558793544769D-08  .360000000000D+02
     .158406000000D+06  .400000000000D+01
 9 17  8  7 22  0  0.0  .420911703259D-03  .704858393874D-11  .000000000000D+00
     .700000000000D+02  .184687500000D+02  .517700135717D-08 -.789141358219D-01
     .938773155212D-06  .667804153636D-03  .469572842121D-05  .515356960869D+04
     .165600000000D+06 -.372529029846D-08 -.169061066630D+01  .745058059692D-08
     .952863732656D+00  .283968750000D+03  .191628274841D+01 -.837320592049D-08
     .112147528538D-09  .100000000000D+01  .196100000000D+04  .000000000000D+00
     .240000000000D+01  .000000000000D+00  .931322574615D-09  .700000000000D+02
     .158406000000D+06  .400000000000D+01
10 17  8  7 22  0  0.0  .305930152535D-04  .110276232590D-10  .000000000000D+00
     .710000000000D+02 -.396875000000D+01  .449340145392D-08  .181453140807D+01
    -.141561031342D-06  .267661607359D-02  .112727284431D-04  .515367684555D+04
     .165600000000D+06 -.428408384323D-07 -.273006412947D+01  .856816768646D-07
     .960549592643D+00  .163156250000D+03 -.280494770069D+01 -.790461497323D-08
     .403945397376D-09  .100000000000D+01  .196100000000D+04  .000000000000D+00
     .240000000000D+01  .000000000000D+00  .186264514923D-08  .710000000000D+02
     .158406000000D+06  .400000000000D+01
11 17  8  7 22  0  0.0 -.707637052983D-03 -.250111042988D-11  .000000000000D+00
     .103000000000D+03 -.107312500000D+03  .604418033580D-08 -.296804840370D+01
    -.562332570553D-05  .170430515427D-01  .152178108692D-05  .515372660637D+04
     .165600000000D+06  .258907675743D-06  .210739251900D+01  .160187482834D-06
     .901668575075D+00  .312968750000D+03  .167331128111D+01 -.882822487386D-08
    -.167149819604D-09  .100000000000D+01  .196100000000D+04  .000000000000D+00
     .340000000000D+01  .000000000000D+00 -.121071934700D-07  .103000000000D+03
     .158406000000D+06  .400000000000D+01
12 17  8  7 22  0  0.0  .376683194190D-03 -.113686837722D-11  .000000000000D+00
     .870000000000D+02  .102000000000D+03  .349550274458D-08  .267103921050D+01
     .528991222382D-05  .657573016360D-02  .101346522570D-04  .515374359322D+04
     .165600000000D+06  .428408384323D-07  .473505064644D+00 -.782310962677D-07
     .989085563818D+00  .196937500000D+03  .911912789125D+00 -.746459664470D-08
     .261796619166D-09  .100000000000D+01  .196100000000D+04  .000000000000D+00
     .240000000000D+01  .000000000000D+00 -.125728547573D-07  .870000000000D+02
     .158406000000D+06  .400000000000D+01
13 17  8  7 22  0  0.0 -.891676172614D-04 -.795807864051D-12  .000000000000D+00
     .950000000000D+02  .668750000000D+01  .478912805784D-08 -.184148256937D+01
     .221654772758D-06  .352284498513D-02  .458583235741D-05  .515368392372D+04
     .165600000000D+06 -.745058059692D-08 -.156322776797D+01  .115483999252D-06
     .968829280337D+00  .295218750000D+03  .179285132640D+01 -.814641075928D-08
    -.846463830045D-10  .100000000000D+01  .196100000000D+04  .000000000000D+00
     .340000000000D+01  .000000000000D+00 -.111758708954D-07  .950000000000D+02
     .158406000000D+06  .400000000000D+01
14 17  8  7 22  0  0.0 -.801482237875D-04 -.113686837722D-11  .000000000000D+00
     .690000000000D+02  .790625000000D+01  .510306970619D-08 -.503158260504D+00
     .458210706711D-06  .934704462998D-02  .434741377831D-05  .515366901398D+04
     .165600000000D+06 -.670552253723D-07 -.160319018557D+01  .763684511185D-07
     .961359955632D+00  .296750000000D+03 -.195189753294D+01 -.850321133574D-08
    -.360729311538D-10  .100000000000D+01  .196100000000D+04  .000000000000D+00
     .240000000000D+01  .000000000000D+00 -.977888703346D-08  .690000000000D+02
     .158406000000D+06  .400000000000D+01
15 17  8  7 22  0  0.0 -.354391522706D-03 -.454747350886D-12  .000000000000D+00
     .640000000000D+02  .241875000000D+02  .568166523559D-08 -.104909233050D+01
     .127404928207D-05  .940256600734D-02  .444427132607D-05  .515357918358D+04
     .165600000000D+06  .217929482460D-06 -.175404257770D+01  .353902578354D-07
     .928496168072D+00  .276468750000D+03  .589346585314D+00 -.863535969739D-08
     .149649090628D-09  .100000000000D+01  .196100000000D+04  .000000000000D+00
     .240000000000D+01  .000000000000D+00 -.107102096081D-07  .640000000000D+02
     .158406000000D+06  .400000000000D+01
16 17  8  7 22  0  0.0  .365781597793D-04  .227373675443D-12  .000000000000D+00
     .100000000000D+03  .109218750000D+03  .352443252105D-08  .713200084058D+00
     .580400228500D-05  .927970279008D-02  .962428748608D-05  .515374545479D+04
     .165600000000D+06 -.558793544769D-07  .492364967949D+00  .223517417908D-06
     .989541637307D+00  .209343750000D+03  .461825160346D+00 -.763531804164D-08
     .190365072327D-09  .100000000000D+01  .196100000000D+04  .000000000000D+00
     .240000000000D+01  .000000000000D+00 -.107102096081D-07  .100000000000D+03
     .158406000000D+06  .400000000000D+01
17 17  8  7 22  0  0.0 -.164853408933D-03  .227373675443D-11  .000000000000D+00
     .350000000000D+02  .320937500000D+02  .452233123039D-08 -.188847658903D+00
     .157952308655D-05  .117161853705D-01  .162422657013D-05  .515366443443D+04
     .165600000000D+06 -.158324837685D-06  .150950864368D+01  .119209289551D-06
     .980253800100D+00  .362781250000D+03 -.184653730536D+01 -.855428489173D-08
     .241081470582D-09  .100000000000D+01  .196100000000D+04  .000000000000D+00
     .240000000000D+01  .000000000000D+00 -.111758708954D-07  .350000000000D+02
     .158406000000D+06  .400000000000D+01
18 17  8  7 22  0  0.0  .626302789897D-03  .113686837722D-11  .000000000000D+00
     .940000000000D+02 -.201875000000D+02  .524736143081D-08  .126987953896D+01
    -.115483999252D-05  .181362626608D-01  .114180147648D-04  .515362898445D+04
     .165600000000D+06 -.407919287682D-06 -.277479652605D+01 -.258907675743D-06
     .926192415883D+00  .148031250000D+03 -.178850726431D+01 -.845428072616D-08
     .362515100209D-09  .100000000000D+01  .196100000000D+04  .000000000000D+00
     .240000000000D+01  .000000000000D+00 -.111758708954D-07  .940000000000D+02
     .158406000000D+06  .400000000000D+01
19 17  8  7 22  0  0.0 -.492119230330D-03  .170530256582D-11  .000000000000D+00
     .960000000000D+02  .239687500000D+02  .446482883519D-08  .282042854850D+01
     .108592212200D-05  .102023216896D-01  .774860382080D-06  .515367484093D+04
     .165600000000D+06 -.316649675369D-07  .155720601094D+01 -.130385160446D-06
     .977564264710D+00  .374125000000D+03  .104391632737D+01 -.820284168128D-08
     .155363614375D-09  .100000000000D+01  .196100000000D+04  .000000000000D+00
     .240000000000D+01  .000000000000D+00 -.153668224812D-07  .960000000000D+02
     .158406000000D+06  .400000000000D+01
20 17  8  7 22  0  0.0  .482474453747D-03  .125055521494D-11  .000000000000D+00
     .800000000000D+02 -.183437500000D+02  .511807033103D-08 -.113314811866D+01
    -.892207026482D-06  .441478926223D-02  .112652778625D-04  .515372508430D+04
     .165600000000D+06 -.912696123123D-07 -.282600508689D+01  .316649675369D-07
     .927601304009D+00  .145250000000D+03  .163920946402D+01 -.823534303509D-08
     .307155651409D-09  .100000000000D+01  .196100000000D+04  .000000000000D+00
     .240000000000D+01  .000000000000D+00 -.838190317154D-08  .800000000000D+02
     .158406000000D+06  .400000000000D+01
21 17  8  7 22  0  0.0 -.488840509206D-03  .272848410532D-11  .000000000000D+00
     .380000000000D+02 -.125968750000D+03  .486948854803D-08  .217127585767D+01
    -.673532485962D-05  .239529540995D-01  .562705099583D-05  .515363869667D+04
     .165600000000D+06  .312924385071D-06  .246872386632D+01 -.277534127235D-06
     .940710322738D+00  .260250000000D+03 -.165245167998D+01 -.799354724904D-08
    -.283226083217D-09  .100000000000D+01  .196100000000D+04  .000000000000D+00
     .240000000000D+01  .000000000000D+00 -.977888703346D-08  .380000000000D+02
     .158406000000D+06  .400000000000D+01
22 17  8  7 22  0  0.0 -.806292518973D-04 -.125055521494D-10  .000000000000D+00
     .370000000000D+02 -.409375000000D+01  .523700385652D-08 -.801128061308D+00
    -.245869159698D-06  .739849964157D-02  .118650496006D-04  .515376769447D+04
     .165600000000D+06 -.152736902237D-06 -.277506732536D+01  .651925802231D-07
     .924262452430D+00  .131156250000D+03 -.169309012958D+01 -.838927801853D-08
     .426803492364D-09  .100000000000D+01  .196100000000D+04  .000000000000D+00
     .240000000000D+01  .000000000000D+00 -.176951289177D-07  .370000000000D+02
     .158406000000D+06  .400000000000D+01
23 17  8  7 22  0  0.0 -.216030050069D-03 -.454747350886D-12  .000000000000D+00
     .730000000000D+02  .172812500000D+02  .531843581991D-08 -.156129478944D+01
     .841915607452D-06  .118833334418D-01  .428780913353D-05  .515369407845D+04
     .165600000000D+06  .199303030968D-06 -.168946465285D+01 -.126659870148D-06
     .943724235342D+00  .284843750000D+03 -.243206384730D+01 -.833749014707D-08
     .176793078427D-09  .100000000000D+01  .196100000000D+04  .000000000000D+00
     .240000000000D+01  .000000000000D+00 -.204890966415D-07  .730000000000D+02
     .158406000000D+06  .400000000000D+01
